=== SEARCH SNIPPETS ===

[OV1-13 - Wikipedia]
OV1-13 ... Orbiting Vehicle 1–13 (also known as OV1-13 [1]) was a satellite launched on 6 April 1968 to measure the level of radiation in orbit at altitudes as high as 8,000 km (5,000 mi).
URL: https://en.wikipedia.org/wiki/OV1-13

[OV1-13/OV1-14 | Atlas-E/F OV1 | Next Spaceflight]
Orbiting Vehicle 1-13 (also known as OV1-13) was a satellite launched on 6 April 1968 to measure the level of radiation in orbit at altitudes as high as 8,000 km (5,000 mi). Part of the OV1 series of USAF satellites, using standardized designs and sent to orbit on decommissioned Atlas ICBMs to reduce development and launching costs, OV1-13 was launched side-by-side with OV1-14. The launch ...
URL: https://nextspaceflight.com/launches/details/4451/

[Track OV1-13 (NORAD ID: 3173) live with Satcat]
OV1-13, 3173 is a payload satellite owned by USAF OAR (US) that was launched on Sat, 06 Apr 1968 UTC via an ATLAS F launch vehicle from the Air Force Western Test Range (AFWTR). Payload-class satellites include a variety of spacecraft equipped with specific instruments for various scientific and technological missions. These include communications satellites like Starlink; space stations such ...
URL: https://www.satcat.com/sats/3173

[12 Months of the Year - timeanddate.com]
Our current Gregorian calendar and its predecessor, the Julian calendar, both have 12 months. However, the month names we use today are derived from the Roman calendar, which initially had only 10 months, with the calendar year starting in March (Martius).
URL: https://www.timeanddate.com/calendar/months/

[Wolfram|Alpha (1968th month of OV1-13 | launch date)]
Result: outside of range
URL: https://www.wolframalpha.com/input/?i=In+which+month+of+1968+was+the+OV1-13+spacecraft+launched%3F


=== FULL EXTRACTED CONTENT ===


--- [OV1-13 - Wikipedia] ---
Orbiting Vehicle 1–13 (also known as OV1-13 ) was a satellite launched on 6 April 1968 to measure the level of radiation in orbit at altitudes as high as 8,000 km (5,000 mi). Part of the OV1 series of USAF satellites, using standardized designs and sent to orbit on decommissioned Atlas ICBMs to reduce development and launching costs, OV1-13 was launched side-by-side with OV1-14. The launch marked the first usage of the Atlas F in the OV program. Operating for more than a year and a half, OV1-13 mapped the grosser characteristics of the Van Allen radiation belts and contributed to the understanding of how particles flow and cause increased intensities during solar storms. As of 12 May 2023, OV1-13 is still in orbit.


--- [OV1-13/OV1-14 | Atlas-E/F OV1 | Next Spaceflight] ---
Status Success OV1-13/OV1-14 Sat Apr 06, 1968 09:59 UTC Rocket Mission Details OV1-13 Orbiting Vehicle 1–13 (also known as OV1-13) was a satellite launched on 6 April 1968 to measure the level of radiation in orbit at altitudes as high as 8,000 km (5,000 mi). Part of the OV1 series of USAF satellites, using standardized designs and sent to orbit on decommissioned Atlas ICBMs to reduce development and launching costs, OV1-13 was launched side-by-side with OV1-14. The launch marked the first usage of the Atlas F in the OV program. Operating for more than a year and a half, OV1-13 mapped the grosser characteristics of the Van Allen radiation belts and contributed to the understanding of how particles flow and cause increased intensities during solar storms. As of 12 May 2023, OV1-13 is still in orbit. OV1-14 Orbiting Vehicle 1–14 (also known as OV1-14) was a satellite launched on 6 April 1968 to measure electromagnetic interference and measure proton and electron flux at altitudes up to 8,000 km (5,000 mi). OV1-14 was also supposed to study the Sun in the Lyman-alpha line. Part of the OV1 series of USAF satellites, using standardized designs and sent to orbit on decommissioned Atlas ICBMs to reduce development and launching costs, OV1-14 was launched side-by-side with OV1-13. The launch marked the first usage of the Atlas F in the OV program. Unfortunately, the satellite failed after four to seven days, returning about 24 hours of usable data.


--- [Track OV1-13 (NORAD ID: 3173) live with Satcat] ---
OV1-13, 3173 Orbit data source: Space-Track OV1-13, 3173 is a payload satellite owned by USAF OAR (US) that was launched on Sat, 06 Apr 1968 UTC via an ATLAS F launch vehicle from the Air Force Western Test Range (AFWTR). Payload-class satellites include a variety of spacecraft equipped with specific instruments for various scientific and technological missions. These include communications satellites like Starlink; space stations such as the ISS; scientific satellites like the Hubble; Earth observation satellites from companies like Planet Labs, Umbra, and HawkEye 360; GPS; miniature CubeSats for education and research; and military/defense satellites. Focus sentinelFocus sentinel Request partner network tasking Focus sentinelFocus sentinel Embed this page Focus sentinelFocus sentinel 3173 intel report (Beta) Focus sentinelFocus sentinel Edit Public Description Focus sentinelFocus sentinel Create New Watchlist Expand to show TLE details & historyLast TLE update: 1 day ago TLE from 1 day ago 0 OV1-13 1 03173U 68026A 26061.77646626 .00000278 00000-0 38351-3 0 9995 2 03173 99.9512 0.0230 3856791 17.3536 352.8878 7.25820106530482 Epoch: 2026-03-02T18:38Z TLE epoch observation values (Epoch: 2026-03-02T18:38:06.684Z) Latitude -0.00003° Longitude -80.06987° Altitude 633.253 km Speed 8.852 km/s True Right ascension 00h 00m 05s True Declination 0° 00' 00" Sunlit Visualization orbit readout Latitude Unknown Longitude Unknown Altitude Unknown Speed Unknown Apparent Right ascension Unknown Apparent Declination Unknown Sunlit Visualization observer readout Local Sidereal Time 22:13:40 Azimuth Unknown Elevation Unknown Doppler factor Unknown Orbital elements Apogee altitude 9,232.65 km Perigee altitude 542.681 km Semi-major axis 11,265.803 km Eccentricity 0.38568 Inclination 99.9512° RAAN 0.023° Arg. of periapsis 17.3536° True anomaly 342.75814° Mean anomaly 352.8878° Eccentric anomaly 348.4714° Mean motion 1.8151 °/min Orbital period 198.34 mins BSTAR 0.00038351 Loading maneuver chart data... Computing Atmospheric mass density... Loading historical data... Loading historical data... Loading historical data... Loading historical data... Loading historical data... Loading historical data... Loading historical data... Other satellites on launch #26 in the year 1968 (1968-04-06 UTC) Did you know? You can import UDL-sourced sensor .json files into the Sandbox to generate a visibility chart that accounts for multi-vendor sensor geometry.OV1-13 Visibility forecast Loading observer location... Span | Click to sort rows by Start time (UTC) header in descending order | Start Az. | Max El. time (UTC) | Max El. Az. | Max El. | End time (UTC) | End Az. | |---|---|---|---|---|---|---|---| | 27 mins | 2026-03-04 04:28:58.761Z | 65.6° ENE | 2026-03-04 04:40:58.761Z | 87.397° E | 12.058° | 2026-03-04 04:55:58.761Z | 108.525° ESE | | 72 mins | 2026-03-04 07:30:58.761Z | 21.819° NNE | 2026-03-04 07:50:58.761Z | 103.044° ESE | 42.842° | 2026-03-04 08:42:58.761Z | 191.634° SSW | | 49 mins | 2026-03-04 10:46:58.761Z | 0.304° NNE | 2026-03-04 11:00:58.761Z | 303.098° NW | 33.963° | 2026-03-04 11:35:58.761Z | 247.1° WSW | Co-orbital & Co-planar RSOs Thresholds — Semi-major Axis: ±100 km, RAAN: ±3°, Inclination: ±5° TCA is derived from TLE conjunctions Click to sort rows by RSO header in ascending order | Click to sort rows by Country header in ascending order | Click to sort rows by Type header in ascending order | Click to sort rows by Inclination Δ header in ascending order | Click to sort rows by RAAN Δ header in ascending order | Click to sort rows by Coplanar Angle header in ascending order | Click to sort rows by SMA Δ header in ascending order | Click to sort rows by Orbital period header in ascending order | Click to sort rows by <5km Md TCA header in descending order | |---| CAUTION: Conjunctions in this section are generated from low-fidelity TLE screenings Authenticating... Click to sort rows by Secondary header in ascending order | Click to sort rows by Secondary name header in ascending order | Click to sort rows by Country header in ascending order | Click to sort rows by Owner header in ascending order | Click to sort rows by Obj. Type header in ascending order | Click to sort rows by Miss dist. header in ascending order | Click to sort rows by Rel. speed header in ascending order | Click to sort rows by Apr. angle header in ascending order | Click to sort rows by TCA header in descending order | |---|


--- [12 Months of the Year - timeanddate.com] ---
Each month has either 28, 30, or 31 days during a common year, which has 365 days. During leap years, which occur nearly every 4 years, we add an extra (intercalary) day, Leap Day, on 29 February, making leap years 366 days long. This is to keep our current calendar aligned with the solar year and astronomical seasons marked by equinoxes and solstices. The 12 Months The Gregorian calendar consists of the following 12 months: - January (31 days) - March (31 days) - April (30 days) - May (31 days) - June (30 days) - July (31 days) - August (31 days) - September (30 days) - October (31 days) - November (30 days) - December (31 days) Tracking the Moon’s Orbit The months originated as a way to mark time and break up the year into shorter periods based on the Moon’s orbit around Earth. The word month is even derived from the word Moon. As far as we know, months were first used in Mesopotamia sometime between the years 500 BCE and 400 BCE to measure the natural period related to the lunar month, or synodic month, which is the time it takes for the Moon to go through all the Moon phases. Moon phases in your cityHow Many Have 28, 29, 30, or 31 Days? The Gregorian calendar has 4 months that are 30 days long and 7 months that are 31 days long. February is the only month that is 28 days long in common years and 29 days long in leap years. From 10 to 12 Months Our current Gregorian calendar and its predecessor, the Julian calendar, both have 12 months. However, the month names we use today are derived from the Roman calendar, which initially had only 10 months, with the calendar year starting in March (Martius). Calendar with holidaysThe Romans named some of the months after their position in the calendar year: September means the 7th month, October the 8th, November the 9th, and December the 10th month. However, when January and February were eventually added and the beginning of the calendar year was moved to January, the position of these months no longer corresponded with the original meaning of their names. Today, we still call the 9th month of the year September, the 7th month. The Islamic calendar, the Hebrew calendar, and the Hindu calendar also use months to divide up the year. Although the Gregorian calendar is the most commonly used calendar today, other calendars are still used in many parts of the world to calculate certain holidays and annual feasts. Old Names of Months Months in the ancient Roman calendar include:


--- [Wolfram|Alpha (1968th month of OV1-13 | launch date)] ---
No content
